{"type": "FeatureCollection", "features": [ {"type": "Feature", "properties": {"norad_id": 34874, "name": "COSMOS 2251 DEB", "group": "cosmos-2251-debris", "lat": 47.68530326054119, "lon": 91.99394202566899, "alt_km": 741.9366437888939, "timestamp": "2025-12-12T18:57:44.524484+00:00", "meta": {"OBJECT_NAME": "COSMOS 2251 DEB", "OBJECT_ID": "1993-036ACM", "EPOCH": "2025-12-12T05:29:30.411744", "MEAN_MOTION": 14.36307124, "ECCENTRICITY": 0.00509679, "INCLINATION": 74.0398, "RA_OF_ASC_NODE": 74.703, "ARG_OF_PERICENTER": 100.1759, "MEAN_ANOMALY": 289.5848, "EPHEMERIS_TYPE": 0, "CLASSIFICATION_TYPE": "U", "NORAD_CAT_ID": 34874, "ELEMENT_SET_NO": 999, "REV_AT_EPOCH": 87037, "BSTAR": 0.0013992098, "MEAN_MOTION_DOT": 4.128e-05, "MEAN_MOTION_DDOT": 0}, "tle": {"line1": "1 34874U 93036ACM 25346.22882421  .00004128  00000+0  13992-2 0  9996", "line2": "2 34874  74.0398  74.7030 0050967 100.1759 289.5848 14.36307124870370"}}, "geometry": {"type": "Point", "coordinates": [91.99394202566899, 47.68530326054119]}}, {"type": "Feature", "properties": {"norad_id": 34875, "name": "COSMOS 2251 DEB", "group": "cosmos-2251-debris", "lat": 67.66340375037804, "lon": -66.01422545119812, "alt_km": 733.648113696464, "timestamp": "2025-12-12T18:57:44.524493+00:00", "meta": {"OBJECT_NAME": "COSMOS 2251 DEB", "OBJECT_ID": "1993-036ACN", "EPOCH": "2025-12-12T06:02:41.048736", "MEAN_MOTION": 14.48922447, "ECCENTRICITY": 0.00161161, "INCLINATION": 74.0434, "RA_OF_ASC_NODE": 159.1286, "ARG_OF_PERICENTER": 282.8958, "MEAN_ANOMALY": 256.5606, "EPHEMERIS_TYPE": 0, "CLASSIFICATION_TYPE": "U", "NORAD_CAT_ID": 34875, "ELEMENT_SET_NO": 999, "REV_AT_EPOCH": 87748, "BSTAR": 0.0007372953, "MEAN_MOTION_DOT": 2.77e-05, "MEAN_MOTION_DDOT": 0}, "tle": {"line1": "1 34875U 93036ACN 25346.25186399  .00002770  00000+0  73730-3 0  9999", "line2": "2 34875  74.0434 159.1286 0016116 282.8958 256.5606 14.48922447877489"}}, "geometry": {"type": "Point", "coordinates": [-66.01422545119812, 67.66340375037804]}}, {"type": "Feature", "properties": {"norad_id": 34878, "name": "COSMOS 2251 DEB", "group": "cosmos-2251-debris", "lat": -33.566837301391665, "lon": -121.75393951670274, "alt_km": 1423.7675153067767, "timestamp": "2025-12-12T18:57:44.524503+00:00", "meta": {"OBJECT_NAME": "COSMOS 2251 DEB", "OBJECT_ID": "1993-036ACR", "EPOCH": "2025-12-09T11:24:21.665664", "MEAN_MOTION": 13.44185831, "ECCENTRICITY": 0.04353122, "INCLINATION": 73.9652, "RA_OF_ASC_NODE": 52.502, "ARG_OF_PERICENTER": 36.6708, "MEAN_ANOMALY": 343.8238, "EPHEMERIS_TYPE": 0, "CLASSIFICATION_TYPE": "U", "NORAD_CAT_ID": 34878, "ELEMENT_SET_NO": 999, "REV_AT_EPOCH": 81229, "BSTAR": 0.00088072379, "MEAN_MOTION_DOT": 8.84e-06, "MEAN_MOTION_DDOT": 0}, "tle": {"line1": "1 34878U 93036ACR 25343.47525076  .00000884  00000+0  88072-3 0  9991", "line2": "2 34878  73.9652  52.5020 0435312  36.6708 343.8238 13.44185831812297"}}, "geometry": {"type": "Point", "coordinates": [-121.75393951670274, -33.566837301391665]}}, {"type": "Feature", "properties": {"norad_id": 34882, "name": "COSMOS 2251 DEB", "group": "cosmos-2251-debris", "lat": 49.35809839941798, "lon": -115.03834535590535, "alt_km": 653.3288611150638, "timestamp": "2025-12-12T18:57:44.524513+00:00", "meta": {"OBJECT_NAME": "COSMOS 2251 DEB", "OBJECT_ID": "1993-036ACV", "EPOCH": "2025-12-12T02:18:03.231072", "MEAN_MOTION": 14.61595621, "ECCENTRICITY": 0.00828406, "INCLINATION": 74.0462, "RA_OF_ASC_NODE": 226.8217, "ARG_OF_PERICENTER": 353.9491, "MEAN_ANOMALY": 6.0665, "EPHEMERIS_TYPE": 0, "CLASSIFICATION_TYPE": "U", "NORAD_CAT_ID": 34882, "ELEMENT_SET_NO": 999, "REV_AT_EPOCH": 88515, "BSTAR": 0.00026377037, "MEAN_MOTION_DOT": 1.344e-05, "MEAN_MOTION_DDOT": 0}, "tle": {"line1": "1 34882U 93036ACV 25346.09587073  .00001344  00000+0  26377-3 0  9994", "line2": "2 34882  74.0462 226.8217 0082840 353.9491   6.0665 14.61595621885154"}}, "geometry": {"type": "Point", "coordinates": [-115.03834535590535, 49.35809839941798]}}, {"type": "Feature", "properties": {"norad_id": 34883, "name": "COSMOS 2251 DEB", "group": "cosmos-2251-debris", "lat": 72.95704783660932, "lon": 175.14201275546213, "alt_km": 772.4793437314001, "timestamp": "2025-12-12T18:57:44.524523+00:00", "meta": {"OBJECT_NAME": "COSMOS 2251 DEB", "OBJECT_ID": "1993-036ACW", "EPOCH": "2025-12-12T05:16:46.096608", "MEAN_MOTION": 14.51477124, "ECCENTRICITY": 0.00951451, "INCLINATION": 74.1989, "RA_OF_ASC_NODE": 63.6857, "ARG_OF_PERICENTER": 248.9733, "MEAN_ANOMALY": 110.1233, "EPHEMERIS_TYPE": 0, "CLASSIFICATION_TYPE": "U", "NORAD_CAT_ID": 34883, "ELEMENT_SET_NO": 999, "REV_AT_EPOCH": 86432, "BSTAR": 0.0063651984, "MEAN_MOTION_DOT": 0.00027049, "MEAN_MOTION_DDOT": 0}, "tle": {"line1": "1 34883U 93036ACW 25346.21997797  .00027049  00000+0  63652-2 0  9993", "line2": "2 34883  74.1989  63.6857 0095145 248.9733 110.1233 14.51477124864321"}}, "geometry": {"type": "Point", "coordinates": [175.14201275546213, 72.95704783660932]}}, {"type": "Feature", "properties": {"norad_id": 34884, "name": "COSMOS 2251 DEB", "group": "cosmos-2251-debris", "lat": 35.997186890346114, "lon": 68.65937592624788, "alt_km": 593.7061189014375, "timestamp": "2025-12-12T18:57:44.524533+00:00", "meta": {"OBJECT_NAME": "COSMOS 2251 DEB", "OBJECT_ID": "1993-036ACX", "EPOCH": "2025-12-12T06:09:07.951392", "MEAN_MOTION": 14.90041008, "ECCENTRICITY": 0.00023854, "INCLINATION": 74.017, "RA_OF_ASC_NODE": 57.7102, "ARG_OF_PERICENTER": 84.5238, "MEAN_ANOMALY": 331.2957, "EPHEMERIS_TYPE": 0, "CLASSIFICATION_TYPE": "U", "NORAD_CAT_ID": 34884, "ELEMENT_SET_NO": 999, "REV_AT_EPOCH": 87798, "BSTAR": 0.0038138263, "MEAN_MOTION_DOT": 0.0003699, "MEAN_MOTION_DDOT": 0}, "tle": {"line1": "1 34884U 93036ACX 25346.25634203  .00036990  00000+0  38138-2 0  9994", "line2": "2 34884  74.0170  57.7102 0002385  84.5238 331.2957 14.90041008877984"}}, "geometry": {"type": "Point", "coordinates": [68.65937592624788, 35.997186890346114]}}, {"type": "Feature", "properties": {"norad_id": 34885, "name": "COSMOS 2251 DEB", "group": "cosmos-2251-debris", "lat": -72.66491749102576, "lon": 116.3820925157896, "alt_km": 717.0537647338524, "timestamp": "2025-12-12T18:57:44.524563+00:00", "meta": {"OBJECT_NAME": "COSMOS 2251 DEB", "OBJECT_ID": "1993-036ACY", "EPOCH": "2025-12-11T22:23:14.497152", "MEAN_MOTION": 14.51494583, "ECCENTRICITY": 0.0015161, "INCLINATION": 74.031, "RA_OF_ASC_NODE": 184.5413, "ARG_OF_PERICENTER": 270.1747, "MEAN_ANOMALY": 208.7652, "EPHEMERIS_TYPE": 0, "CLASSIFICATION_TYPE": "U", "NORAD_CAT_ID": 34885, "ELEMENT_SET_NO": 999, "REV_AT_EPOCH": 87467, "BSTAR": 0.0010029, "MEAN_MOTION_DOT": 3.989e-05, "MEAN_MOTION_DDOT": 0}, "tle": {"line1": "1 34885U 93036ACY 25345.93280668  .00003989  00000+0  10029-2 0  9992", "line2": "2 34885  74.0310 184.5413 0015161 270.1747 208.7652 14.51494583874679"}}, "geometry": {"type": "Point", "coordinates": [116.3820925157896, -72.66491749102576]}}, {"type": "Feature", "properties": {"norad_id": 34886, "name": "COSMOS 2251 DEB", "group": "cosmos-2251-debris", "lat": 15.704701067987372, "lon": -174.47409650436342, "alt_km": 430.1151140190341, "timestamp": "2025-12-12T18:57:44.524589+00:00", "meta": {"OBJECT_NAME": "COSMOS 2251 DEB", "OBJECT_ID": "1993-036ACZ", "EPOCH": "2025-12-12T06:24:27.664704", "MEAN_MOTION": 15.38560691, "ECCENTRICITY": 0.00306523, "INCLINATION": 73.951, "RA_OF_ASC_NODE": 182.0165, "ARG_OF_PERICENTER": 5.3961, "MEAN_ANOMALY": 354.7569, "EPHEMERIS_TYPE": 0, "CLASSIFICATION_TYPE": "U", "NORAD_CAT_ID": 34886, "ELEMENT_SET_NO": 999, "REV_AT_EPOCH": 62991, "BSTAR": 0.0024261281, "MEAN_MOTION_DOT": 0.00094998, "MEAN_MOTION_DDOT": 0}, "tle": {"line1": "1 34886U 93036ACZ 25346.26698686  .00094998  00000+0  24261-2 0  9996", "line2": "2 34886  73.9510 182.0165 0030652   5.3961 354.7569 15.38560691629919"}}, "geometry": {"type": "Point", "coordinates": [-174.47409650436342, 15.704701067987372]}}, {"type": "Feature", "properties": {"norad_id": 34907, "name": "COSMOS 2251 DEB", "group": "cosmos-2251-debris", "lat": -50.676595036184565, "lon": 27.755048574687603, "alt_km": 428.07097127475663, "timestamp": "2025-12-12T18:57:44.524601+00:00", "meta": {"OBJECT_NAME": "COSMOS 2251 DEB", "OBJECT_ID": "1993-036ADC", "EPOCH": "2025-12-11T05:51:35.474112", "MEAN_MOTION": 15.42604987, "ECCENTRICITY": 0.00202148, "INCLINATION": 73.9703, "RA_OF_ASC_NODE": 51.6726, "ARG_OF_PERICENTER": 343.8034, "MEAN_ANOMALY": 16.2526, "EPHEMERIS_TYPE": 0, "CLASSIFICATION_TYPE": "U", "NORAD_CAT_ID": 34907, "ELEMENT_SET_NO": 999, "REV_AT_EPOCH": 87950, "BSTAR": 0.013338819, "MEAN_MOTION_DOT": 0.00633609, "MEAN_MOTION_DDOT": 0}, "tle": {"line1": "1 34907U 93036ADC 25345.24416058  .00633609  00000+0  13339-1 0  9999", "line2": "2 34907  73.9703  51.6726 0020214 343.8034  16.2526 15.42604987879502"}}, "geometry": {"type": "Point", "coordinates": [27.755048574687603, -50.676595036184565]}}, {"type": "Feature", "properties": {"norad_id": 34908, "name": "COSMOS 2251 DEB", "group": "cosmos-2251-debris", "lat": -23.884055858789978, "lon": 16.29372535710841, "alt_km": 759.8423886826704, "timestamp": "2025-12-12T18:57:44.524612+00:00", "meta": {"OBJECT_NAME": "COSMOS 2251 DEB", "OBJECT_ID": "1993-036ADD", "EPOCH": "2025-12-12T04:18:31.391136", "MEAN_MOTION": 14.37395899, "ECCENTRICITY": 0.00400222, "INCLINATION": 74.0593, "RA_OF_ASC_NODE": 24.6859, "ARG_OF_PERICENTER": 40.987, "MEAN_ANOMALY": 16.4387, "EPHEMERIS_TYPE": 0, "CLASSIFICATION_TYPE": "U", "NORAD_CAT_ID": 34908, "ELEMENT_SET_NO": 999, "REV_AT_EPOCH": 87271, "BSTAR": 0.00078652034, "MEAN_MOTION_DOT": 2.347e-05, "MEAN_MOTION_DDOT": 0}, "tle": {"line1": "1 34908U 93036ADD 25346.17952999  .00002347  00000+0  78652-3 0  9992", "line2": "2 34908  74.0593  24.6859 0040022  40.9870  16.4387 14.37395899872716"}}, "geometry": {"type": "Point", "coordinates": [16.29372535710841, -23.884055858789978]}}]}